[{"OBJECT_NAME":"EZIE-A","OBJECT_ID":"2025-052AP","EPOCH":"2026-03-09T23:28:40.313568","MEAN_MOTION":14.96303626,"ECCENTRICITY":0.00037417,"INCLINATION":97.7004,"RA_OF_ASC_NODE":322.7329,"ARG_OF_PERICENTER":145.0909,"MEAN_ANOMALY":215.0559,"EPHEMERIS_TYPE":0,"CLASSIFICATION_TYPE":"U","NORAD_CAT_ID":63247,"ELEMENT_SET_NO":999,"REV_AT_EPOCH":5382,"BSTAR":0.00071342701,"MEAN_MOTION_DOT":8.013e-5,"MEAN_MOTION_DDOT":0},{"OBJECT_NAME":"STARLINK-33901","OBJECT_ID":"2025-094Q","EPOCH":"2026-03-09T20:25:37.134336","MEAN_MOTION":14.98313761,"ECCENTRICITY":0.00030915,"INCLINATION":70.0016,"RA_OF_ASC_NODE":234.1936,"ARG_OF_PERICENTER":241.9102,"MEAN_ANOMALY":118.1745,"EPHEMERIS_TYPE":0,"CLASSIFICATION_TYPE":"U","NORAD_CAT_ID":63878,"ELEMENT_SET_NO":999,"REV_AT_EPOCH":4722,"BSTAR":0.0010054032,"MEAN_MOTION_DOT":0.00011919,"MEAN_MOTION_DDOT":0}]
