EZIE-A                  
1 63247U 25052AP  26068.97824436  .00008013  00000+0  71343-3 0  9993
2 63247  97.7004 322.7329 0003742 145.0909 215.0559 14.96303626 53828
STARLINK-33901          
1 63878U 25094Q   26068.85112424  .00011919  00000+0  10054-2 0  9993
2 63878  70.0016 234.1936 0003091 241.9102 118.1745 14.98313761 47223
